{"type": "FeatureCollection", "features": [ {"type": "Feature", "properties": {"norad_id": 33867, "name": "IRIDIUM 33 DEB", "group": "iridium-33-debris", "lat": -27.965836590339038, "lon": -15.102144108365108, "alt_km": 339.17466367181714, "timestamp": "2025-12-18T23:35:49.447130+00:00", "meta": {"OBJECT_NAME": "IRIDIUM 33 DEB", "OBJECT_ID": "1997-051AL", "EPOCH": "2025-12-18T11:33:15.397344", "MEAN_MOTION": 15.79273416, "ECCENTRICITY": 0.00134538, "INCLINATION": 86.3642, "RA_OF_ASC_NODE": 347.0978, "ARG_OF_PERICENTER": 92.8798, "MEAN_ANOMALY": 267.4018, "EPHEMERIS_TYPE": 0, "CLASSIFICATION_TYPE": "U", "NORAD_CAT_ID": 33867, "ELEMENT_SET_NO": 999, "REV_AT_EPOCH": 89601, "BSTAR": 0.007023666, "MEAN_MOTION_DOT": 0.014139, "MEAN_MOTION_DDOT": 0}, "tle": {"line1": "1 33867U 97051AL  25352.48142821  .01413900  00000+0  70237-2 0  9994", "line2": "2 33867  86.3642 347.0978 0013453  92.8798 267.4018 15.79273416896012"}}, "geometry": {"type": "Point", "coordinates": [-15.102144108365108, -27.965836590339038]}}, {"type": "Feature", "properties": {"norad_id": 33870, "name": "IRIDIUM 33 DEB", "group": "iridium-33-debris", "lat": 43.15820946681755, "lon": 58.993150071155824, "alt_km": 742.14466718318, "timestamp": "2025-12-18T23:35:49.447141+00:00", "meta": {"OBJECT_NAME": "IRIDIUM 33 DEB", "OBJECT_ID": "1997-051AP", "EPOCH": "2025-12-18T05:23:59.703648", "MEAN_MOTION": 14.45879643, "ECCENTRICITY": 0.00220517, "INCLINATION": 86.3746, "RA_OF_ASC_NODE": 55.9098, "ARG_OF_PERICENTER": 160.4911, "MEAN_ANOMALY": 258.9692, "EPHEMERIS_TYPE": 0, "CLASSIFICATION_TYPE": "U", "NORAD_CAT_ID": 33870, "ELEMENT_SET_NO": 999, "REV_AT_EPOCH": 88216, "BSTAR": 0.00057936504, "MEAN_MOTION_DOT": 2.083e-05, "MEAN_MOTION_DDOT": 0}, "tle": {"line1": "1 33870U 97051AP  25352.22499657  .00002083  00000+0  57937-3 0  9990", "line2": "2 33870  86.3746  55.9098 0022051 160.4911 258.9692 14.45879643882162"}}, "geometry": {"type": "Point", "coordinates": [58.993150071155824, 43.15820946681755]}}, {"type": "Feature", "properties": {"norad_id": 33881, "name": "IRIDIUM 33 DEB", "group": "iridium-33-debris", "lat": 26.414126928626903, "lon": -77.77029186846197, "alt_km": 659.5163931710886, "timestamp": "2025-12-18T23:35:49.447152+00:00", "meta": {"OBJECT_NAME": "IRIDIUM 33 DEB", "OBJECT_ID": "1997-051BA", "EPOCH": "2025-12-18T14:56:51.081216", "MEAN_MOTION": 14.56675983, "ECCENTRICITY": 0.00614723, "INCLINATION": 86.3861, "RA_OF_ASC_NODE": 104.1853, "ARG_OF_PERICENTER": 155.6994, "MEAN_ANOMALY": 269.0173, "EPHEMERIS_TYPE": 0, "CLASSIFICATION_TYPE": "U", "NORAD_CAT_ID": 33881, "ELEMENT_SET_NO": 999, "REV_AT_EPOCH": 87586, "BSTAR": 0.0015701969, "MEAN_MOTION_DOT": 7.214e-05, "MEAN_MOTION_DDOT": 0}, "tle": {"line1": "1 33881U 97051BA  25352.62281344  .00007214  00000+0  15702-2 0  9992", "line2": "2 33881  86.3861 104.1853 0061472 155.6994 269.0173 14.56675983875864"}}, "geometry": {"type": "Point", "coordinates": [-77.77029186846197, 26.414126928626903]}}, {"type": "Feature", "properties": {"norad_id": 33884, "name": "IRIDIUM 33 DEB", "group": "iridium-33-debris", "lat": -28.199513960270078, "lon": -171.04865538318757, "alt_km": 643.2083078588976, "timestamp": "2025-12-18T23:35:49.447163+00:00", "meta": {"OBJECT_NAME": "IRIDIUM 33 DEB", "OBJECT_ID": "1997-051BD", "EPOCH": "2025-12-18T11:58:04.433088", "MEAN_MOTION": 14.77541028, "ECCENTRICITY": 0.00092581, "INCLINATION": 86.3692, "RA_OF_ASC_NODE": 7.219, "ARG_OF_PERICENTER": 301.5803, "MEAN_ANOMALY": 210.9745, "EPHEMERIS_TYPE": 0, "CLASSIFICATION_TYPE": "U", "NORAD_CAT_ID": 33884, "ELEMENT_SET_NO": 999, "REV_AT_EPOCH": 88932, "BSTAR": 0.0012713868, "MEAN_MOTION_DOT": 9.106e-05, "MEAN_MOTION_DDOT": 0}, "tle": {"line1": "1 33884U 97051BD  25352.49866242  .00009106  00000+0  12714-2 0  9998", "line2": "2 33884  86.3692   7.2190 0009258 301.5803 210.9745 14.77541028889322"}}, "geometry": {"type": "Point", "coordinates": [-171.04865538318757, -28.199513960270078]}}, {"type": "Feature", "properties": {"norad_id": 33886, "name": "IRIDIUM 33 DEB", "group": "iridium-33-debris", "lat": -75.46781646928352, "lon": 50.475992328533835, "alt_km": 775.0731694060432, "timestamp": "2025-12-18T23:35:49.447174+00:00", "meta": {"OBJECT_NAME": "IRIDIUM 33 DEB", "OBJECT_ID": "1997-051BF", "EPOCH": "2025-12-18T14:28:13.300608", "MEAN_MOTION": 14.36058761, "ECCENTRICITY": 0.0012784, "INCLINATION": 86.3827, "RA_OF_ASC_NODE": 64.761, "ARG_OF_PERICENTER": 220.4973, "MEAN_ANOMALY": 258.7568, "EPHEMERIS_TYPE": 0, "CLASSIFICATION_TYPE": "U", "NORAD_CAT_ID": 33886, "ELEMENT_SET_NO": 999, "REV_AT_EPOCH": 88136, "BSTAR": 0.00015317423, "MEAN_MOTION_DOT": 4.65e-06, "MEAN_MOTION_DDOT": 0}, "tle": {"line1": "1 33886U 97051BF  25352.60293172  .00000465  00000+0  15317-3 0  9991", "line2": "2 33886  86.3827  64.7610 0012784 220.4973 258.7568 14.36058761881365"}}, "geometry": {"type": "Point", "coordinates": [50.475992328533835, -75.46781646928352]}}, {"type": "Feature", "properties": {"norad_id": 33887, "name": "IRIDIUM 33 DEB", "group": "iridium-33-debris", "lat": -66.28734758698339, "lon": -170.8360818798232, "alt_km": 772.4724942989506, "timestamp": "2025-12-18T23:35:49.447185+00:00", "meta": {"OBJECT_NAME": "IRIDIUM 33 DEB", "OBJECT_ID": "1997-051BG", "EPOCH": "2025-12-18T12:59:41.582400", "MEAN_MOTION": 14.37226103, "ECCENTRICITY": 0.00050195, "INCLINATION": 86.3041, "RA_OF_ASC_NODE": 0.8919, "ARG_OF_PERICENTER": 202.838, "MEAN_ANOMALY": 279.4165, "EPHEMERIS_TYPE": 0, "CLASSIFICATION_TYPE": "U", "NORAD_CAT_ID": 33887, "ELEMENT_SET_NO": 999, "REV_AT_EPOCH": 88248, "BSTAR": 0.00011794042, "MEAN_MOTION_DOT": 3.71e-06, "MEAN_MOTION_DDOT": 0}, "tle": {"line1": "1 33887U 97051BG  25352.54145350  .00000371  00000+0  11794-3 0  9990", "line2": "2 33887  86.3041   0.8919 0005019 202.8380 279.4165 14.37226103882481"}}, "geometry": {"type": "Point", "coordinates": [-170.8360818798232, -66.28734758698339]}}, {"type": "Feature", "properties": {"norad_id": 33953, "name": "IRIDIUM 33 DEB", "group": "iridium-33-debris", "lat": 30.706840634546023, "lon": -131.0821344495896, "alt_km": 701.2311776583392, "timestamp": "2025-12-18T23:35:49.447195+00:00", "meta": {"OBJECT_NAME": "IRIDIUM 33 DEB", "OBJECT_ID": "1997-051BN", "EPOCH": "2025-12-18T15:14:55.461696", "MEAN_MOTION": 14.5537891, "ECCENTRICITY": 0.00180649, "INCLINATION": 86.3845, "RA_OF_ASC_NODE": 51.2209, "ARG_OF_PERICENTER": 84.8917, "MEAN_ANOMALY": 42.7226, "EPHEMERIS_TYPE": 0, "CLASSIFICATION_TYPE": "U", "NORAD_CAT_ID": 33953, "ELEMENT_SET_NO": 999, "REV_AT_EPOCH": 88389, "BSTAR": 0.00081934216, "MEAN_MOTION_DOT": 3.584e-05, "MEAN_MOTION_DDOT": 0}, "tle": {"line1": "1 33953U 97051BN  25352.63536414  .00003584  00000+0  81934-3 0  9991", "line2": "2 33953  86.3845  51.2209 0018064  84.8917  42.7226 14.55378910883896"}}, "geometry": {"type": "Point", "coordinates": [-131.0821344495896, 30.706840634546023]}}, {"type": "Feature", "properties": {"norad_id": 33960, "name": "IRIDIUM 33 DEB", "group": "iridium-33-debris", "lat": -84.8796207514142, "lon": 153.55598126065357, "alt_km": 623.6880949457527, "timestamp": "2025-12-18T23:35:49.447207+00:00", "meta": {"OBJECT_NAME": "IRIDIUM 33 DEB", "OBJECT_ID": "1997-051BV", "EPOCH": "2025-12-18T06:57:12.542400", "MEAN_MOTION": 14.854684, "ECCENTRICITY": 0.00074505, "INCLINATION": 86.2539, "RA_OF_ASC_NODE": 286.8965, "ARG_OF_PERICENTER": 53.039, "MEAN_ANOMALY": 107.3954, "EPHEMERIS_TYPE": 0, "CLASSIFICATION_TYPE": "U", "NORAD_CAT_ID": 33960, "ELEMENT_SET_NO": 999, "REV_AT_EPOCH": 88949, "BSTAR": 0.0027672748, "MEAN_MOTION_DOT": 0.00023957, "MEAN_MOTION_DDOT": 0}, "tle": {"line1": "1 33960U 97051BV  25352.28972850  .00023957  00000+0  27673-2 0  9993", "line2": "2 33960  86.2539 286.8965 0007450  53.0390 107.3954 14.85468400889493"}}, "geometry": {"type": "Point", "coordinates": [153.55598126065357, -84.8796207514142]}}, {"type": "Feature", "properties": {"norad_id": 33966, "name": "IRIDIUM 33 DEB", "group": "iridium-33-debris", "lat": 33.94253458206122, "lon": -139.0861328627926, "alt_km": 719.5288669892207, "timestamp": "2025-12-18T23:35:49.447217+00:00", "meta": {"OBJECT_NAME": "IRIDIUM 33 DEB", "OBJECT_ID": "1997-051CB", "EPOCH": "2025-12-18T15:23:51.544320", "MEAN_MOTION": 14.49616316, "ECCENTRICITY": 0.00080643, "INCLINATION": 86.3918, "RA_OF_ASC_NODE": 43.4945, "ARG_OF_PERICENTER": 169.3872, "MEAN_ANOMALY": 354.7755, "EPHEMERIS_TYPE": 0, "CLASSIFICATION_TYPE": "U", "NORAD_CAT_ID": 33966, "ELEMENT_SET_NO": 999, "REV_AT_EPOCH": 88527, "BSTAR": 0.00039110994, "MEAN_MOTION_DOT": 1.522e-05, "MEAN_MOTION_DDOT": 0}, "tle": {"line1": "1 33966U 97051CB  25352.64156880  .00001522  00000+0  39111-3 0  9991", "line2": "2 33966  86.3918  43.4945 0008064 169.3872 354.7755 14.49616316885274"}}, "geometry": {"type": "Point", "coordinates": [-139.0861328627926, 33.94253458206122]}}, {"type": "Feature", "properties": {"norad_id": 34071, "name": "IRIDIUM 33 DEB", "group": "iridium-33-debris", "lat": -29.583893166150528, "lon": -162.8058223695698, "alt_km": 736.7647335647298, "timestamp": "2025-12-18T23:35:49.447227+00:00", "meta": {"OBJECT_NAME": "IRIDIUM 33 DEB", "OBJECT_ID": "1997-051CE", "EPOCH": "2025-12-18T14:21:00.592128", "MEAN_MOTION": 14.49489321, "ECCENTRICITY": 0.00099496, "INCLINATION": 86.345, "RA_OF_ASC_NODE": 15.282, "ARG_OF_PERICENTER": 91.6671, "MEAN_ANOMALY": 268.5673, "EPHEMERIS_TYPE": 0, "CLASSIFICATION_TYPE": "U", "NORAD_CAT_ID": 34071, "ELEMENT_SET_NO": 999, "REV_AT_EPOCH": 88419, "BSTAR": 0.00044954259, "MEAN_MOTION_DOT": 1.742e-05, "MEAN_MOTION_DDOT": 0}, "tle": {"line1": "1 34071U 97051CE  25352.59792352  .00001742  00000+0  44954-3 0  9998", "line2": "2 34071  86.3450  15.2820 0009949  91.6671 268.5673 14.49489321884194"}}, "geometry": {"type": "Point", "coordinates": [-162.8058223695698, -29.583893166150528]}}]}